<?xml version="1.0" encoding="UTF-8"?>
<gpx version="1.1" creator="travelback-test">
  <trk>
    <name>Invalid Elevation Track</name>
    <trkseg>
      <trkpt lat="37.5665" lon="126.9780">
        <ele>abc</ele>
        <time>2026-01-01T00:00:00Z</time>
      </trkpt>
      <trkpt lat="37.5670" lon="126.9790">
        <ele>12</ele>
        <time>2026-01-01T00:01:00Z</time>
      </trkpt>
      <trkpt lat="37.5675" lon="126.9800">
        <ele>18</ele>
        <time>2026-01-01T00:02:00Z</time>
      </trkpt>
    </trkseg>
  </trk>
</gpx>
