<?xml version="1.0" encoding="UTF-8"?>
<!ENTITY ignored
  "entity text that should be stripped">
<gpx version="1.1" creator="Travelback Test" xmlns="http://www.topografix.com/GPX/1/1">
  <trk>
    <name>Multiline Entity GPX</name>
    <trkseg>
      <trkpt lat="37.5665" lon="126.9780">
        <ele>10</ele>
        <time>2026-01-01T00:00:00Z</time>
      </trkpt>
      <trkpt lat="37.5675" lon="126.9790">
        <ele>12</ele>
        <time>2026-01-01T00:01:00Z</time>
      </trkpt>
    </trkseg>
  </trk>
</gpx>
